IRIDIUM 33 DEB          
1 34870U 97051MQ  25046.42011638  .00013816  00000+0  23316-2 0  9991
2 34870  86.3114  90.8102 0023291 149.7926 273.4473 14.69188216844903
IRIDIUM 33 DEB          
1 34896U 97051MY  25044.41167370  .00005765  00000+0  11317-2 0  9993
2 34896  86.3294 101.8303 0029562 171.2189 200.2873 14.62277697831952
IRIDIUM 33 DEB          
1 34926U 97051NF  25046.54060293  .00040343  00000+0  11343-1 0  9998
2 34926  86.1467 145.8507 0111632 208.2895 163.3169 14.42055324821129
IRIDIUM 33 DEB          
1 34928U 97051NH  25045.91069023  .00049473  00000+0  39940-2 0  9997
2 34928  86.3806 115.9701 0013153 316.9640  43.0562 14.99557903843822
IRIDIUM 33 DEB          
1 34985U 97051NR  25046.39373118  .00003660  00000+0  11424-2 0  9991
2 34985  86.3748 184.7660 0023353 134.7295 280.6057 14.40449323828499
IRIDIUM 33 DEB          
1 35051U 97051NX  25046.00679247  .00004291  00000+0  12077-2 0  9992
2 35051  86.3287 139.7459 0007814  25.0836 335.0744 14.45666880826484
IRIDIUM 33 DEB          
1 35052U 97051NY  25046.58061829  .00001197  00000+0  38961-3 0  9990
2 35052  86.3361 149.1035 0010919 357.8096   2.3052 14.37963356829610
IRIDIUM 33 DEB          
1 35080U 97051PF  25046.36942989  .00078723  00000+0  17368-1 0  9997
2 35080  86.2230 191.7968 0102033 137.4458 223.4714 14.53701381652808
IRIDIUM 33 DEB          
1 35297U 97051PM  25046.12226430  .00004925  00000+0  14549-2 0  9999
2 35297  86.3910 190.7761 0015879  63.3681 296.9144 14.43288093660877
IRIDIUM 33 DEB          
1 35299U 97051PP  25046.29626847  .00007892  00000+0  25581-2 0  9999
2 35299  86.2968 163.6514 0055280  12.7523  17.5790 14.37982587820086
IRIDIUM 33 DEB          
1 35480U 97051QA  25046.02586733  .00004948  00000+0  13312-2 0  9999
2 35480  86.3634 155.0625 0013786  36.5859 323.6283 14.47814558826771
IRIDIUM 33 DEB          
1 35484U 97051QE  25043.48251761  .00023151  00000+0  29853-2 0  9994
2 35484  86.3670 132.4056 0028712 134.1604 226.1985 14.80624906575039
IRIDIUM 33 DEB          
1 35488U 97051QJ  25046.50736225  .00016212  00000+0  23600-2 0  9991
2 35488  86.3235  78.4099 0030524  17.8941 342.3345 14.75471626838273
IRIDIUM 33 DEB          
1 35616U 97051QN  25046.50339850  .00018470  00000+0  28892-2 0  9993
2 35616  86.3577 121.7710 0014840 152.2810 207.9201 14.72609195831427
IRIDIUM 33 DEB          
1 35618U 97051QQ  25046.47093001  .00003678  00000+0  92781-3 0  9999
2 35618  86.3417 124.6385 0027331 305.4570  54.4084 14.50653086610384
IRIDIUM 33 DEB          
1 35620U 97051QS  25045.52420677  .00008525  00000+0  29245-2 0  9990
2 35620  86.3925 343.4299 0160184 153.1368 207.8236 14.29042974556536
IRIDIUM 33 DEB          
1 35622U 97051QU  25045.96892677  .00022759  00000+0  30174-2 0  9991
2 35622  86.2086  47.8658 0012296 277.4664 112.1651 14.79699745830328
IRIDIUM 33 DEB          
1 35628U 97051RA  25046.54189559  .00013763  00000+0  27464-2 0  9993
2 35628  86.3623 142.3426 0012228 268.2798  91.7013 14.61825631820528
IRIDIUM 33 DEB          
1 35631U 97051RD  25046.24241625  .00003178  00000+0  88031-3 0  9994
2 35631  86.3723 150.2702 0017979  49.1439 341.5656 14.46282088828527
IRIDIUM 33 DEB          
1 35632U 97051RE  25045.87029048  .00128489  00000+0  82543-2 0  9990
2 35632  86.3967 262.1377 0037383  57.8393 302.6461 15.07273182814738
IRIDIUM 33 DEB          
1 35680U 97051RJ  25034.08467623  .00021221  00000+0  92289-2 0  9993
2 35680  86.1104 159.3588 0170909 192.8803 341.7939 14.16441324562683
IRIDIUM 33 DEB          
1 35744U 97051RX  25045.41108067  .00009371  00000+0  17090-2 0  9996
2 35744  86.3294 101.0050 0025904 154.6115 205.6377 14.65697653829097
IRIDIUM 33 DEB          
1 35797U 97051SF  25045.45253540  .00016827  00000+0  25925-2 0  9995
2 35797  86.3368 107.3107 0018305 137.1769 223.0878 14.73233147828909
IRIDIUM 33 DEB          
1 35809U 97051ST  25046.45281716  .00015836  00000+0  27507-2 0  9993
2 35809  86.3286 111.2387 0016117 197.0707 162.9967 14.68006757823906
IRIDIUM 33 DEB          
1 35846U 97051SW  25045.82502725  .00004209  00000+0  12876-2 0  9995
2 35846  86.3802 186.9960 0019447  92.2504 268.0923 14.41517196669911
IRIDIUM 33 DEB          
1 35848U 97051SY  25046.57061350  .00019908  00000+0  32851-2 0  9991
2 35848  86.3971 150.1952 0012054 176.6590 183.4709 14.70294939622676
IRIDIUM 33 DEB          
1 35850U 97051TA  25046.50117215  .00016017  00000+0  26235-2 0  9996
2 35850  86.3517 119.9201 0014923 161.9497 198.2252 14.70606669669322
IRIDIUM 33 DEB          
1 35911U 97051TU  25045.64202578  .00051180  00000+0  68273-2 0  9993
2 35911  86.2123 122.8415 0037996   8.0586 352.1236 14.78839850825827
IRIDIUM 33 DEB          
1 35915U 97051TY  25046.45455505  .00018493  00000+0  29655-2 0  9998
2 35915  86.3427 119.1345 0016990 171.9581 188.1912 14.71504536 36562
IRIDIUM 33 DEB          
1 35918U 97051UB  25046.21045318  .00009378  00000+0  25141-2 0  9990
2 35918  86.4063 204.3326 0027798  98.0379  22.7690 14.47867337808534
IRIDIUM 33 DEB          
1 35929U 97051UN  25045.86989107  .00026354  00000+0  30908-2 0  9995
2 35929  86.3367  93.0582 0019172  31.8030 328.4347 14.84718979833581
IRIDIUM 33 DEB          
1 36011U 97051US  25041.59881589  .00003775  00000+0  11908-2 0  9990
2 36011  86.3473 166.3107 0020437 145.2152 225.6841 14.39971940601477
IRIDIUM 33 DEB          
1 36012U 97051UT  25046.48919102  .00003471  00000+0  14602-2 0  9994
2 36012  86.4430  67.5971 0238356 130.6840 231.5326 14.11367698612404
IRIDIUM 33 DEB          
1 36028U 97051VK  25046.35621986  .00023525  00000+0  29969-2 0  9991
2 36028  86.3231  86.2725 0023459  45.0840 315.2279 14.81229582826577
IRIDIUM 33 DEB          
1 36080U 97051VM  25039.00259065  .00003814  00000+0  10921-2 0  9995
2 36080  86.3244 141.8523 0019143 106.5024 253.8283 14.44705965429681
IRIDIUM 33 DEB          
1 36083U 97051VQ  25044.05852544  .00003658  00000+0  11130-2 0  9999
2 36083  86.3503 164.2704 0028532 144.8514 215.4576 14.41618895810868
IRIDIUM 33 DEB          
1 36390U 97051VU  25041.38654657  .00010936  00000+0  19035-2 0  9997
2 36390  86.2938  78.6320 0036863 141.2378 219.1491 14.67547401617737
IRIDIUM 33 DEB          
1 36483U 97051VZ  25046.09626787  .00004853  00000+0  14104-2 0  9999
2 36483  86.3857 180.9462 0009793  54.6782 305.5334 14.44127252608046
IRIDIUM 33 DEB          
1 36490U 97051WG  25045.98383927  .00017785  00000+0  31036-2 0  9991
2 36490  86.3732 145.1843 0001212  77.0845 283.0505 14.67882546820606
IRIDIUM 33 DEB          
1 36493U 97051WK  25045.99302659  .00011864  00000+0  24632-2 0  9994
2 36493  86.3608 144.7413 0010272 287.9186  72.0904 14.60035441701227
IRIDIUM 33 DEB          
1 37548U 97051XH  25041.10645292  .00011120  00000+0  29878-2 0  9990
2 37548  86.3508 175.9457 0027806 136.9594 223.3791 14.47766175611044
IRIDIUM 33 DEB          
1 37550U 97051XK  25046.58486708  .00014323  00000+0  28757-2 0  9998
2 37550  86.3841 156.2902 0003072 103.1864 256.9690 14.61592975819400
IRIDIUM 33 DEB          
1 37562U 97051XX  25046.64377422  .00009974  00000+0  24239-2 0  9997
2 37562  86.3816 173.9962 0025285  40.8450 330.5023 14.52564636819665
IRIDIUM 33 DEB          
1 38017U 97051YD  25045.68012136  .00009017  00000+0  27693-2 0  9999
2 38017  86.3355 295.5670 0129593  13.6560 346.8087 14.36752151570659
IRIDIUM 33 DEB          
1 38022U 97051YJ  25046.02276092  .00004451  00000+0  14265-2 0  9995
2 38022  86.2771 147.7963 0045260 314.5524  45.1981 14.38765390648660
IRIDIUM 33 DEB          
1 38028U 97051YQ  25045.51027267  .00002667  00000+0  75503-3 0  9992
2 38028  86.3286 131.0960 0029420  47.6260 312.7425 14.45011059611437
IRIDIUM 33 DEB          
1 38228U 97051ZC  25046.63247566  .00002190  00000+0  87999-3 0  9997
2 38228  86.3020 175.9136 0065781  78.1798 294.5384 14.26549205805021
IRIDIUM 33 DEB          
1 38236U 97051ZL  25040.47023436  .00077538  00000+0  76616-2 0  9991
2 38236  86.2469 106.1813 0032897 139.4503 220.9184 14.91144122740751
IRIDIUM 33 DEB          
1 38241U 97051ZR  25045.47774979  .00005121  00000+0  12562-2 0  9996
2 38241  86.3251 123.2334 0002382  33.2172 326.9183 14.52266181558248
IRIDIUM 33 DEB          
1 38474U 97051AAB 25040.01966793  .00003590  00000+0  94471-3 0  9994
2 38474  86.3485 143.5097 0026164  37.0344 323.2659 14.48653895608749
IRIDIUM 33 DEB          
1 39777U 97051AAJ 25046.48398083  .00021976  00000+0  56779-2 0  9995
2 39777  85.9626 320.0433 0067736 110.7178 250.1302 14.48450626558258
IRIDIUM 33 DEB          
1 39778U 97051AAK 25046.59713011  .00008267  00000+0  20821-2 0  9997
2 39778  86.3855 173.1335 0006768 310.3694  49.6920 14.51059562563357
IRIDIUM 33 DEB          
1 39781U 97051AAN 25045.67948722  .00012281  00000+0  53309-2 0  9996
2 39781  86.3740  21.3341 0195157 142.7757  29.8539 14.14402722 38412
IRIDIUM 33 DEB          
1 40996U 97051ABJ 25046.52365330  .00033895  00000+0  46235-2 0  9993
2 40996  86.3623 139.4318 0007211  34.0407 337.1859 14.78477165580285
IRIDIUM 33 DEB          
1 40998U 97051ABL 25046.14109477  .00004141  00000+0  12169-2 0  9992
2 40998  86.3893 181.8400 0007101   6.9570 166.9287 14.43571759 23423
IRIDIUM 33 DEB          
1 46435U 97051ABN 25021.09949289  .00036271  00000+0  13044-1 0  9995
2 46435  86.2854 332.6288 0213906 244.2903 125.5242 14.21640684662375
IRIDIUM 33 DEB          
1 46734U 97051ABR 25039.55118316  .00005396  00000+0  17171-2 0  9996
2 46734  86.2672 137.4467 0040631 260.3948 111.2893 14.39260760585871
IRIDIUM 33 DEB          
1 46965U 97051ABX 25045.66230991  .00005139  00000+0  11270-2 0  9994
2 46965  86.3349 113.9077 0018327 262.5492 252.2861 14.57376188578785
IRIDIUM 33 DEB          
1 46974U 97051ACG 25044.77668293  .00013904  00000+0  44364-2 0  9994
2 46974  86.3019 236.0403 0103626  99.6550 261.6372 14.36592530531610
